[{"OBJECT_NAME":"ONEWEB-0228","OBJECT_ID":"2021-045P","EPOCH":"2026-04-22T21:03:40.566240","MEAN_MOTION":13.15548156,"ECCENTRICITY":0.0001863,"INCLINATION":87.896,"RA_OF_ASC_NODE":270.2072,"ARG_OF_PERICENTER":94.0939,"MEAN_ANOMALY":266.0404,"EPHEMERIS_TYPE":0,"CLASSIFICATION_TYPE":"U","NORAD_CAT_ID":48780,"ELEMENT_SET_NO":999,"REV_AT_EPOCH":23705,"BSTAR":0.00030854,"MEAN_MOTION_DOT":1.29e-06,"MEAN_MOTION_DDOT":0.0},{"OBJECT_NAME":"ONEWEB-0232","OBJECT_ID":"2021-045Q","EPOCH":"2026-04-23T03:45:03.269376","MEAN_MOTION":13.15548444,"ECCENTRICITY":0.0001776,"INCLINATION":87.896,"RA_OF_ASC_NODE":270.1537,"ARG_OF_PERICENTER":95.069,"MEAN_ANOMALY":265.0643,"EPHEMERIS_TYPE":0,"CLASSIFICATION_TYPE":"U","NORAD_CAT_ID":48781,"ELEMENT_SET_NO":999,"REV_AT_EPOCH":23741,"BSTAR":-0.00040075,"MEAN_MOTION_DOT":-1.38e-06,"MEAN_MOTION_DDOT":0.0},{"OBJECT_NAME":"ONEWEB-0231","OBJECT_ID":"2021-045R","EPOCH":"2026-04-23T03:13:07.125600","MEAN_MOTION":13.15548951,"ECCENTRICITY":0.0001909,"INCLINATION":87.8948,"RA_OF_ASC_NODE":270.177,"ARG_OF_PERICENTER":88.9906,"MEAN_ANOMALY":271.1443,"EPHEMERIS_TYPE":0,"CLASSIFICATION_TYPE":"U","NORAD_CAT_ID":48782,"ELEMENT_SET_NO":999,"REV_AT_EPOCH":23710,"BSTAR":-0.00013338,"MEAN_MOTION_DOT":-3.7e-07,"MEAN_MOTION_DDOT":0.0},{"OBJECT_NAME":"ONEWEB-0234","OBJECT_ID":"2021-045S","EPOCH":"2026-04-22T20:49:34.777632","MEAN_MOTION":13.15549281,"ECCENTRICITY":9.63e-05,"INCLINATION":87.8949,"RA_OF_ASC_NODE":270.209,"ARG_OF_PERICENTER":92.0157,"MEAN_ANOMALY":268.1084,"EPHEMERIS_TYPE":0,"CLASSIFICATION_TYPE":"U","NORAD_CAT_ID":48783,"ELEMENT_SET_NO":999,"REV_AT_EPOCH":23720,"BSTAR":4.9126e-05,"MEAN_MOTION_DOT":3.1e-07,"MEAN_MOTION_DDOT":0.0},{"OBJECT_NAME":"ONEWEB-0238","OBJECT_ID":"2021-045T","EPOCH":"2026-04-22T20:49:59.113056","MEAN_MOTION":13.15547485,"ECCENTRICITY":0.0001374,"INCLINATION":87.8945,"RA_OF_ASC_NODE":270.2017,"ARG_OF_PERICENTER":95.1249,"MEAN_ANOMALY":265.0038,"EPHEMERIS_TYPE":0,"CLASSIFICATION_TYPE":"U","NORAD_CAT_ID":48784,"ELEMENT_SET_NO":999,"REV_AT_EPOCH":23710,"BSTAR":6.7214e-05,"MEAN_MOTION_DOT":3.8e-07,"MEAN_MOTION_DDOT":0.0},{"OBJECT_NAME":"ONEWEB-0240","OBJECT_ID":"2021-045U","EPOCH":"2026-04-22T23:10:06.346272","MEAN_MOTION":13.15546886,"ECCENTRICITY":0.00018,"INCLINATION":87.8963,"RA_OF_ASC_NODE":270.1913,"ARG_OF_PERICENTER":85.6255,"MEAN_ANOMALY":274.5081,"EPHEMERIS_TYPE":0,"CLASSIFICATION_TYPE":"U","NORAD_CAT_ID":48785,"ELEMENT_SET_NO":999,"REV_AT_EPOCH":23714,"BSTAR":0.00012900000000000002,"MEAN_MOTION_DOT":6.1e-07,"MEAN_MOTION_DDOT":0.0},{"OBJECT_NAME":"ONEWEB-0246","OBJECT_ID":"2021-045V","EPOCH":"2026-04-23T06:20:12.786432","MEAN_MOTION":13.15548071,"ECCENTRICITY":0.0001928,"INCLINATION":87.8954,"RA_OF_ASC_NODE":270.138,"ARG_OF_PERICENTER":96.8474,"MEAN_ANOMALY":263.2876,"EPHEMERIS_TYPE":0,"CLASSIFICATION_TYPE":"U","NORAD_CAT_ID":48786,"ELEMENT_SET_NO":999,"REV_AT_EPOCH":23705,"BSTAR":0.00044913,"MEAN_MOTION_DOT":1.82e-06,"MEAN_MOTION_DDOT":0.0},{"OBJECT_NAME":"ONEWEB-0210","OBJECT_ID":"2021-045W","EPOCH":"2026-04-22T11:28:28.658208","MEAN_MOTION":13.15547485,"ECCENTRICITY":0.0002684,"INCLINATION":87.8952,"RA_OF_ASC_NODE":270.2917,"ARG_OF_PERICENTER":92.5966,"MEAN_ANOMALY":267.5472,"EPHEMERIS_TYPE":0,"CLASSIFICATION_TYPE":"U","NORAD_CAT_ID":48787,"ELEMENT_SET_NO":999,"REV_AT_EPOCH":23699,"BSTAR":-7.1666e-05,"MEAN_MOTION_DOT":-1.4e-07,"MEAN_MOTION_DDOT":0.0},{"OBJECT_NAME":"ONEWEB-0214","OBJECT_ID":"2021-045X","EPOCH":"2026-04-22T20:48:37.592064","MEAN_MOTION":13.1554696,"ECCENTRICITY":0.0002203,"INCLINATION":87.8955,"RA_OF_ASC_NODE":270.2103,"ARG_OF_PERICENTER":98.359,"MEAN_ANOMALY":261.779,"EPHEMERIS_TYPE":0,"CLASSIFICATION_TYPE":"U","NORAD_CAT_ID":48788,"ELEMENT_SET_NO":999,"REV_AT_EPOCH":23701,"BSTAR":0.00010994,"MEAN_MOTION_DOT":5.4e-07,"MEAN_MOTION_DDOT":0.0},{"OBJECT_NAME":"ONEWEB-0221","OBJECT_ID":"2021-045Y","EPOCH":"2026-04-22T20:58:54.125184","MEAN_MOTION":13.15548404,"ECCENTRICITY":0.0001928,"INCLINATION":87.8954,"RA_OF_ASC_NODE":270.2184,"ARG_OF_PERICENTER":91.3185,"MEAN_ANOMALY":268.8167,"EPHEMERIS_TYPE":0,"CLASSIFICATION_TYPE":"U","NORAD_CAT_ID":48789,"ELEMENT_SET_NO":999,"REV_AT_EPOCH":23710,"BSTAR":0.00032555,"MEAN_MOTION_DOT":1.35e-06,"MEAN_MOTION_DDOT":0.0},{"OBJECT_NAME":"ONEWEB-0213","OBJECT_ID":"2021-045Z","EPOCH":"2026-04-22T17:03:53.109504","MEAN_MOTION":13.15547305,"ECCENTRICITY":0.0002073,"INCLINATION":87.8951,"RA_OF_ASC_NODE":270.2545,"ARG_OF_PERICENTER":90.8033,"MEAN_ANOMALY":269.3335,"EPHEMERIS_TYPE":0,"CLASSIFICATION_TYPE":"U","NORAD_CAT_ID":48790,"ELEMENT_SET_NO":999,"REV_AT_EPOCH":23714,"BSTAR":-2.1841e-05,"MEAN_MOTION_DOT":5e-08,"MEAN_MOTION_DDOT":0.0},{"OBJECT_NAME":"ONEWEB-0212","OBJECT_ID":"2021-045AA","EPOCH":"2026-04-22T20:09:49.377312","MEAN_MOTION":13.15545999,"ECCENTRICITY":0.0001753,"INCLINATION":87.8954,"RA_OF_ASC_NODE":270.2231,"ARG_OF_PERICENTER":96.6369,"MEAN_ANOMALY":263.4961,"EPHEMERIS_TYPE":0,"CLASSIFICATION_TYPE":"U","NORAD_CAT_ID":48791,"ELEMENT_SET_NO":999,"REV_AT_EPOCH":23715,"BSTAR":-0.00039668,"MEAN_MOTION_DOT":-1.36e-06,"MEAN_MOTION_DDOT":0.0},{"OBJECT_NAME":"ONEWEB-0227","OBJECT_ID":"2021-045AB","EPOCH":"2026-04-22T20:08:41.748576","MEAN_MOTION":13.15548602,"ECCENTRICITY":0.0001799,"INCLINATION":87.8953,"RA_OF_ASC_NODE":270.225,"ARG_OF_PERICENTER":93.292,"MEAN_ANOMALY":266.8416,"EPHEMERIS_TYPE":0,"CLASSIFICATION_TYPE":"U","NORAD_CAT_ID":48792,"ELEMENT_SET_NO":999,"REV_AT_EPOCH":23710,"BSTAR":-0.00024346,"MEAN_MOTION_DOT":-7.9e-07,"MEAN_MOTION_DDOT":0.0},{"OBJECT_NAME":"ONEWEB-0226","OBJECT_ID":"2021-045AC","EPOCH":"2026-04-23T03:17:39.440256","MEAN_MOTION":13.15548969,"ECCENTRICITY":0.0002076,"INCLINATION":87.895,"RA_OF_ASC_NODE":270.1715,"ARG_OF_PERICENTER":93.5588,"MEAN_ANOMALY":266.578,"EPHEMERIS_TYPE":0,"CLASSIFICATION_TYPE":"U","NORAD_CAT_ID":48793,"ELEMENT_SET_NO":999,"REV_AT_EPOCH":23711,"BSTAR":-6.6878e-05,"MEAN_MOTION_DOT":-1.2e-07,"MEAN_MOTION_DDOT":0.0},{"OBJECT_NAME":"ONEWEB-0224","OBJECT_ID":"2021-045AD","EPOCH":"2026-04-22T20:56:37.208832","MEAN_MOTION":13.15547075,"ECCENTRICITY":0.0001374,"INCLINATION":87.8944,"RA_OF_ASC_NODE":270.2606,"ARG_OF_PERICENTER":67.7164,"MEAN_ANOMALY":292.4111,"EPHEMERIS_TYPE":0,"CLASSIFICATION_TYPE":"U","NORAD_CAT_ID":48794,"ELEMENT_SET_NO":999,"REV_AT_EPOCH":23700,"BSTAR":0.00016747000000000002,"MEAN_MOTION_DOT":7.6e-07,"MEAN_MOTION_DDOT":0.0},{"OBJECT_NAME":"ONEWEB-0233","OBJECT_ID":"2021-045AE","EPOCH":"2026-04-23T04:21:21.878208","MEAN_MOTION":13.1554867,"ECCENTRICITY":0.0001898,"INCLINATION":87.8943,"RA_OF_ASC_NODE":270.2072,"ARG_OF_PERICENTER":87.2235,"MEAN_ANOMALY":272.9112,"EPHEMERIS_TYPE":0,"CLASSIFICATION_TYPE":"U","NORAD_CAT_ID":48795,"ELEMENT_SET_NO":999,"REV_AT_EPOCH":23706,"BSTAR":0.00029004000000000004,"MEAN_MOTION_DOT":1.22e-06,"MEAN_MOTION_DDOT":0.0}]