ONEWEB-0228             
1 48780U 21045P   26112.87755285  .00000129  00000+0  30854-3 0  9992
2 48780  87.8960 270.2072 0001863  94.0939 266.0404 13.15548156237057
ONEWEB-0232             
1 48781U 21045Q   26113.15628784 -.00000138  00000+0 -40075-3 0  9996
2 48781  87.8960 270.1537 0001776  95.0690 265.0643 13.15548444237415
ONEWEB-0231             
1 48782U 21045R   26113.13411025 -.00000037  00000+0 -13338-3 0  9993
2 48782  87.8948 270.1770 0001909  88.9906 271.1443 13.15548951237105
ONEWEB-0234             
1 48783U 21045S   26112.86776363  .00000031  00000+0  49126-4 0  9999
2 48783  87.8949 270.2090 0000963  92.0157 268.1084 13.15549281237201
ONEWEB-0238             
1 48784U 21045T   26112.86804529  .00000038  00000+0  67214-4 0  9991
2 48784  87.8945 270.2017 0001374  95.1249 265.0038 13.15547485237108
ONEWEB-0240             
1 48785U 21045U   26112.96535123  .00000061  00000+0  12900-3 0  9991
2 48785  87.8963 270.1913 0001800  85.6255 274.5081 13.15546886237149
ONEWEB-0246             
1 48786U 21045V   26113.26403688  .00000182  00000+0  44913-3 0  9999
2 48786  87.8954 270.1380 0001928  96.8474 263.2876 13.15548071237051
ONEWEB-0210             
1 48787U 21045W   26112.47810947 -.00000014  00000+0 -71666-4 0  9994
2 48787  87.8952 270.2917 0002684  92.5966 267.5472 13.15547485236995
ONEWEB-0214             
1 48788U 21045X   26112.86710176  .00000054  00000+0  10994-3 0  9999
2 48788  87.8955 270.2103 0002203  98.3590 261.7790 13.15546960237010
ONEWEB-0221             
1 48789U 21045Y   26112.87423756  .00000135  00000+0  32555-3 0  9993
2 48789  87.8954 270.2184 0001928  91.3185 268.8167 13.15548404237106
ONEWEB-0213             
1 48790U 21045Z   26112.71103136  .00000005  00000+0 -21841-4 0  9999
2 48790  87.8951 270.2545 0002073  90.8033 269.3335 13.15547305237140
ONEWEB-0212             
1 48791U 21045AA  26112.84015483 -.00000136  00000+0 -39668-3 0  9992
2 48791  87.8954 270.2231 0001753  96.6369 263.4961 13.15545999237154
ONEWEB-0227             
1 48792U 21045AB  26112.83937209 -.00000079  00000+0 -24346-3 0  9994
2 48792  87.8953 270.2250 0001799  93.2920 266.8416 13.15548602237102
ONEWEB-0226             
1 48793U 21045AC  26113.13726204 -.00000012  00000+0 -66878-4 0  9994
2 48793  87.8950 270.1715 0002076  93.5588 266.5780 13.15548969237115
ONEWEB-0224             
1 48794U 21045AD  26112.87265288  .00000076  00000+0  16747-3 0  9992
2 48794  87.8944 270.2606 0001374  67.7164 292.4111 13.15547075237003
ONEWEB-0233             
1 48795U 21045AE  26113.18150322  .00000122  00000+0  29004-3 0  9992
2 48795  87.8943 270.2072 0001898  87.2235 272.9112 13.15548670237069
